[{"OBJECT_NAME":"OBJECT C","OBJECT_ID":"2023-104C","EPOCH":"2026-03-09T22:39:44.230752","MEAN_MOTION":15.26846312,"ECCENTRICITY":0.00113074,"INCLINATION":97.273,"RA_OF_ASC_NODE":135.3333,"ARG_OF_PERICENTER":3.876,"MEAN_ANOMALY":356.2565,"EPHEMERIS_TYPE":0,"CLASSIFICATION_TYPE":"U","NORAD_CAT_ID":57426,"ELEMENT_SET_NO":999,"REV_AT_EPOCH":14663,"BSTAR":0.00062618506,"MEAN_MOTION_DOT":0.00016495,"MEAN_MOTION_DDOT":0},{"OBJECT_NAME":"STARLINK-35611","OBJECT_ID":"2025-259F","EPOCH":"2026-03-09T19:59:39.060672","MEAN_MOTION":15.27592891,"ECCENTRICITY":0.00018065,"INCLINATION":43.0003,"RA_OF_ASC_NODE":273.5007,"ARG_OF_PERICENTER":274.1429,"MEAN_ANOMALY":85.9216,"EPHEMERIS_TYPE":0,"CLASSIFICATION_TYPE":"U","NORAD_CAT_ID":66427,"ELEMENT_SET_NO":999,"REV_AT_EPOCH":1951,"BSTAR":0.001013964,"MEAN_MOTION_DOT":0.00027756,"MEAN_MOTION_DDOT":0}]
